     2.11           N: GPS NAV DATA                         RINEX VERSION / TYPE
GPB2RIN 8.40.2503                       23-MAY-12 12:06     PGM / RUN BY / DATE
                                                            END OF HEADER
 8 12  5 18 12  0  0.0  .124238431000E-05  .113686838000E-12  .000000000000E+00
     .149000000000E+03 -.103281250000E+03  .348264507000E-08 -.129258669299E+01
    -.551901758000E-05  .122381013352E-01  .777095556000E-05  .515368329811E+04
     .475200000000E+06  .391155481000E-07  .225880940880E+01 -.221654773000E-06
     .997928455955E-00  .247593750000E+03 -.296973521408E+01 -.756067208000E-08
    -.237152736000E-09  .000000000000E+00  .168800000000E+04  .000000000000E+00
     .000000000000E+00  .000000000000E+00 -.372529030000E-08  .149000000000E+03
     .475200000000E+06  .000000000000E+00
26 12  5 18 12  0  0.0 -.397839118000E-03  .920863386000E-11  .000000000000E+00
     .520000000000E+02  .234687500000E+02  .450590197000E-08  .768355025871E-00
     .133924186000E-05  .209370222874E-01  .247173011000E-05  .515365872192E+04
     .475200000000E+06 -.283122063000E-06  .119865232374E+01  .651925802000E-07
     .983245101843E-00  .348562500000E+03  .119527210523E+01 -.861214444000E-08
    -.166792662000E-09  .000000000000E+00  .168800000000E+04  .000000000000E+00
     .000000000000E+00  .000000000000E+00 -.605359674000E-08  .520000000000E+02
     .475200000000E+06  .000000000000E+00
21 12  5 18 12  0  0.0 -.224458054000E-03 -.250111043000E-11  .000000000000E+00
     .790000000000E+02 -.254687500000E+02  .522271755000E-08 -.158691731830E+01
    -.131316483000E-05  .191459693015E-01  .771507621000E-05  .515361109924E+04
     .475200000000E+06  .357627869000E-06 -.975800415605E-00 -.856816769000E-07
     .931180575935E-00  .205906250000E+03 -.225287926117E+01 -.813962476000E-08
    -.288940607000E-09  .000000000000E+00  .168800000000E+04  .000000000000E+00
     .000000000000E+00  .000000000000E+00 -.111758709000E-07  .790000000000E+02
     .475200000000E+06  .000000000000E+00
28 12  5 18 11 59 44.0  .145306811000E-03  .397903932000E-11  .000000000000E+00
     .240000000000E+02 -.103437500000E+02  .366872425000E-08  .272989993154E+01
    -.581145287000E-06  .178391510854E-01  .108387321000E-04  .515363196754E+04
     .475184000000E+06  .141561031000E-06 -.302663923684E+01 -.614672899000E-07
     .979254530500E-00  .176312500000E+03 -.182839878305E+01 -.721565770000E-08
     .445018537000E-09  .000000000000E+00  .168800000000E+04  .000000000000E+00
     .000000000000E+00  .000000000000E+00 -.107102096000E-07  .240000000000E+02
     .475184000000E+06  .000000000000E+00
13 12  5 18 12  0  0.0  .206657685000E-03 -.238742359000E-11  .000000000000E+00
     .530000000000E+02  .184375000000E+02  .421767568000E-08  .166206607853E+01
     .758096576000E-06  .499666971155E-02  .146962702000E-05  .515366978455E+04
     .475200000000E+06  .540167093000E-07  .120467901227E+01 -.763684511000E-07
     .985703071930E-00  .358593750000E+03  .199261101268E+01 -.812283835000E-08
    -.853606985000E-10  .000000000000E+00  .168800000000E+04  .000000000000E+00
     .000000000000E+00  .000000000000E+00 -.111758709000E-07  .530000000000E+02
     .475200000000E+06  .000000000000E+00
15 12  5 18 12  0  0.0 -.913753174000E-04 -.113686838000E-12  .000000000000E+00
     .610000000000E+02  .465625000000E+02  .526593363000E-08  .133777433213E+01
     .265240669000E-05  .437471130863E-02  .147521496000E-05  .515355846786E+04
     .475200000000E+06  .316649675000E-07  .109047448230E+01  .372529030000E-07
     .945467741110E-00  .340125000000E+03  .550826356243E-01 -.871036282000E-08
    -.964325882000E-11  .000000000000E+00  .168800000000E+04  .000000000000E+00
     .000000000000E+00  .000000000000E+00 -.102445483000E-07  .610000000000E+02
     .475200000000E+06  .000000000000E+00
